#aV2008  5 25  0  0   .00000000      96 DD+AD WGS84 FIT  NGA
## 1481       .00000000   900.00000000 54611  .0000000000000
+   31     2  3  4  5  6  7  8  9 10 11 12 13 14 15 16 17 18
+         19 20 21 22 23 24 25 26 27 28 29 30 31 32  0  0  0
+          0  0  0  0  0  0  0  0  0  0  0  0  0  0  0  0  0
+          0  0  0  0  0  0  0  0  0  0  0  0  0  0  0  0  0
+          0  0  0  0  0  0  0  0  0  0  0  0  0  0  0  0  0
++         0  0  0  0  0  0  0  0  0  0  0  0  0  0  0  0  0
++         0  0  0  0  0  0  0  0  0  0  0  0  0  0  0  0  0
++         0  0  0  0  0  0  0  0  0  0  0  0  0  0  0  0  0
++         0  0  0  0  0  0  0  0  0  0  0  0  0  0  0  0  0
++         0  0  0  0  0  0  0  0  0  0  0  0  0  0  0  0  0
%c cc cc ccc ccc cccc cccc cccc cccc ccccc ccccc ccccc ccccc
%c cc cc ccc ccc cccc cccc cccc cccc ccccc ccccc ccccc ccccc
%f  0.0000000  0.000000000  0.00000000000  0.000000000000000
%f  0.0000000  0.000000000  0.00000000000  0.000000000000000
%i    0    0    0    0      0      0      0      0         0
%i    0    0    0    0      0      0      0      0         0
/*      NGA, ST. LOUIS,MO.                                  
/*   EPHEMERIS COMPUTED FROM  3 DAYS OF DATA                
/* CCCCCCCCCCCCCCCCCCCCCCCCCCCCCCCCCCCCCCCCCCCCCCCCCCCCCCCCC
/* CCCCCCCCCCCCCCCCCCCCCCCCCCCCCCCCCCCCCCCCCCCCCCCCCCCCCCCCC
*  2008  5 25 19  0   .00000000                                                 
P  2  13207.413165  23129.447778  -2695.715604    205.081816                    
V  2  -1340.654872   4192.732977  30897.909759       .016563                    
P  3 -17935.796107 -11799.722437 -16110.418933    233.128418                    
V  3  19917.843863  -2654.971460 -20203.948055       .051950                    
P  4   4942.533136  24657.380093   7858.852991    -75.514275                    
V  4  -7384.555377  -7885.639035  29384.208190      -.087382                    
P  5  18747.726688 -10002.955073  15573.437211    781.015602                    
V  5  -7945.283650  18928.054388  21495.969795       .084781                    
P  6  -9936.211203 -14889.503244 -19453.667119    135.326412                    
V  6  25214.456268   -361.720775 -12509.012504       .081838                    
P  7 -12106.513485   9638.850973 -21607.278041    -34.763977                    
V  7 -11929.491218 -24640.452453  -4381.516317       .085961                    
P  8  -3701.432584  20275.744540 -16557.849725   -154.568633                    
V  8  -9382.404269 -18869.029228 -21571.101054      -.016859                    
P  9  17515.795637   7117.836447  18090.429115    126.089834                    
V  9   9728.669200  22193.232164 -17393.985714       .016759                    
P 10   8417.558266  13537.798932 -21329.176791     -1.755046                    
V 10 -16521.847835  21132.150434   7257.886615      -.002772                    
P 11 -19395.828950  -1983.209040  18007.750769     25.313869                    
V 11 -11858.300810 -20250.506386 -14543.859644      -.003106                    
P 12  18673.194405  -4296.455510  18442.227452   -359.027266                    
V 12 -12154.021373  19886.594521  17116.088389       .001943                    
P 13 -20676.061236   7138.920744 -15169.488296    256.929227                    
V 13 -18657.268895  -3766.976194  23865.118158       .017300                    
P 14   4296.787767 -14161.241935  22146.612718   -262.809965                    
V 14  27594.502563   3469.260679  -3244.811438       .041979                    
P 15  24377.817930   7253.767634  -7648.951695   -116.452111                    
V 15  -9921.077563   1992.496981 -29643.263903      -.057881                    
P 16  -3834.785114 -17559.790990 -19412.034385    123.812500                    
V 16  15704.656067 -19318.607473  14515.129312      -.014409                    
P 17  -3983.173434  14875.058282  21671.971327     38.901395                    
V 17 -27267.976634  -3062.222612  -3073.405633      -.001892                    
P 18  17877.464790 -18925.928174  -3981.722495   -174.359113                    
V 18   -419.776256   6372.588872 -31152.839873       .039253                    
P 19 -24410.578923  -8469.210996  -6473.143745     30.637700                    
V 19   8610.295782  -1344.195770 -30117.849222       .008471                    
P 20 -19166.715015   6472.591625  17069.714361    113.577057                    
V 20  10592.761933 -19343.547172  19137.054917      -.008359                    
P 21   9412.177405 -14661.172694 -19694.124398     63.256644                    
V 21  11802.774448  22865.292692 -11885.823488      -.011284                    
P 22   9557.504918 -23131.144608   8963.391294    211.254661                    
V 22   9209.208263  -7069.189952 -28601.832926       .000613                    
P 23 -26448.341314    122.269528  -3685.943339    355.731857                    
V 23  -4333.505279  -2647.005608  31369.589673       .021615                    
P 24  15863.421103   -724.492832 -21084.231655     96.662251                    
V 24   9520.658706  25527.263591   6509.646219       .030188                    
P 25 -15311.167678   2834.659615 -21132.625032   -176.165920                    
V 25 -13451.102308 -24222.364714   6563.569032      -.263854                    
P 26  22083.461426  10513.604726 -11500.390303    260.754984                    
V 26 -13630.704349   -809.996135 -27593.610431       .078616                    
P 27  -9872.765422  11888.352467 -20913.173982    190.931351                    
V 27 -14031.833891 -24398.648498  -7158.961793       .026714                    
P 28 -10600.192373  23084.732319   7522.050560    -19.342048                    
V 28  -7653.114578   5683.554965 -30078.781649      -.004561                    
P 29  22998.030550  -5829.474417 -11789.403797    -42.959659                    
V 29  14819.495869   4077.239373  26647.446761       .003093                    
P 30  18530.738380 -16171.478934   9557.937914     78.120960                    
V 30  -4296.526442  12301.866359  28248.890058       .017409                    
P 31  -6436.506351 -24823.407630   6897.940016    -21.127231                    
V 31   5896.833959   6629.693361  30359.442440      -.012902                    
P 32 -11858.994151  -9566.145384  22194.422780    289.729050                    
V 32  17285.063307 -20886.045693    408.747729       .049566                    
EOF
